IRIDIUM 171             
1 43929U 19002H   24058.52044961  .00000033  00000+0  46412-5 0  9996
2 43929  86.4033 345.1262 0002412  86.7106 273.4365 14.34216427268463
IRIDIUM 170             
1 43930U 19002J   24058.81245318  .00001683  00000+0  26292-3 0  9993
2 43930  86.6152 344.8422 0002666  89.7247 270.4276 14.72265600275615
IRIDIUM 167             
1 43931U 19002K   24058.79318217  .00000112  00000+0  33016-4 0  9999
2 43931  86.4025 344.8144 0002286  85.9184 274.2273 14.34218148268502
IRIDIUM 181             
1 56726U 23068S   24058.40858323  .00000637  00000+0  18218-3 0  9995
2 56726  86.8638  33.2923 0002829  96.3445 263.8079 14.43595958 41150
IRIDIUM 177             
1 56727U 23068T   24057.81772323  .00000403  00000+0  49565-4 0  9996
2 56727  86.2015   8.2214 0002749  93.1358 267.0177 14.80223297 41901
IRIDIUM 174             
1 56728U 23068U   24058.82626236  .00002388  00000+0  31070-3 0  9995
2 56728  86.2030   7.8377 0002449  91.9710 268.1792 14.80240439 42058
IRIDIUM 178             
1 56729U 23068V   24058.41524197  .00002549  00000+0  33195-3 0  9993
2 56729  86.5816  20.2354 0002422  89.7753 270.3746 14.80244231 41991
IRIDIUM 179             
1 56730U 23068W   24058.61261614  .00002406  00000+0  31318-3 0  9996
2 56730  86.6821  22.8903 0002451  92.5708 267.5794 14.80239285 42021
